{
  "norad_id": 66366,
  "name": "STARLINK-35845",
  "history": [
    {
      "epoch": "2026-03-28T21:11:07.222272Z",
      "apogee_km": 476.206557817306,
      "perigee_km": 474.13822904236986,
      "latitude_deg": -2.4991849142535744e-05,
      "longitude_deg": -0.7355983176204989,
      "height_km": 476.0074387220069,
      "semi_major_axis_km": 6853.309393429838,
      "eccentricity": 0.0001509,
      "inclination_deg": 53.16,
      "raan_deg": 143.3413,
      "arg_perigee_deg": 86.5234,
      "mean_anomaly_deg": 273.5939,
      "mean_motion_rev_day": 15.30214293
    },
    {
      "epoch": "2026-03-29T09:43:32.759328Z",
      "apogee_km": 476.1712205536087,
      "perigee_km": 474.16717675499694,
      "latitude_deg": 3.8516417654112695e-06,
      "longitude_deg": 168.218401897364,
      "height_km": 475.8703929041167,
      "semi_major_axis_km": 6853.3061986543025,
      "eccentricity": 0.00014621,
      "inclination_deg": 53.1591,
      "raan_deg": 140.9167,
      "arg_perigee_deg": 78.6869,
      "mean_anomaly_deg": 281.4296,
      "mean_motion_rev_day": 15.30215363
    },
    {
      "epoch": "2026-03-30T12:22:27.188544Z",
      "apogee_km": 476.11719690181053,
      "perigee_km": 474.2991414953258,
      "latitude_deg": 2.608387276939301e-06,
      "longitude_deg": 122.23700041064943,
      "height_km": 475.8820401678956,
      "semi_major_axis_km": 6853.345169198568,
      "eccentricity": 0.00013264,
      "inclination_deg": 53.1607,
      "raan_deg": 135.7565,
      "arg_perigee_deg": 75.7173,
      "mean_anomaly_deg": 284.3975,
      "mean_motion_rev_day": 15.30202311
    },
    {
      "epoch": "2026-03-30T20:12:43.518240Z",
      "apogee_km": 476.23805521689064,
      "perigee_km": 474.2498893968241,
      "latitude_deg": 1.9402234584433955e-05,
      "longitude_deg": 2.830283043508183,
      "height_km": 476.30355810386516,
      "semi_major_axis_km": 6853.380972306857,
      "eccentricity": 0.00014505,
      "inclination_deg": 53.16,
      "raan_deg": 134.2397,
      "arg_perigee_deg": 99.364,
      "mean_anomaly_deg": 260.7525,
      "mean_motion_rev_day": 15.3019032
    },
    {
      "epoch": "2026-03-31T11:53:16.568160Z",
      "apogee_km": 476.0302407551908,
      "perigee_km": 474.5135813631732,
      "latitude_deg": -3.71031975977122e-05,
      "longitude_deg": 124.0169496526575,
      "height_km": 476.18845316054427,
      "semi_major_axis_km": 6853.408911059181,
      "eccentricity": 0.00011065,
      "inclination_deg": 53.1589,
      "raan_deg": 131.2079,
      "arg_perigee_deg": 91.3877,
      "mean_anomaly_deg": 268.725,
      "mean_motion_rev_day": 15.30180963
    },
    {
      "epoch": "2026-04-01T19:14:20.394816Z",
      "apogee_km": 476.19409322388947,
      "perigee_km": 474.09287742708784,
      "latitude_deg": -2.396885499911788e-05,
      "longitude_deg": 6.393674330917156,
      "height_km": 476.07698726684083,
      "semi_major_axis_km": 6853.280485325488,
      "eccentricity": 0.0001533,
      "inclination_deg": 53.1593,
      "raan_deg": 125.1381,
      "arg_perigee_deg": 91.9557,
      "mean_anomaly_deg": 268.1619,
      "mean_motion_rev_day": 15.30223975
    },
    {
      "epoch": "2026-04-02T10:54:51.160320Z",
      "apogee_km": 476.02487381683295,
      "perigee_km": 474.19574211033705,
      "latitude_deg": 3.032194477917567e-05,
      "longitude_deg": 127.58836763628176,
      "height_km": 476.014210383881,
      "semi_major_axis_km": 6853.247307963585,
      "eccentricity": 0.00013345,
      "inclination_deg": 53.1575,
      "raan_deg": 122.1047,
      "arg_perigee_deg": 90.3869,
      "mean_anomaly_deg": 269.7285,
      "mean_motion_rev_day": 15.30235087
    },
    {
      "epoch": "2026-04-03T08:51:34.796736Z",
      "apogee_km": 476.69135413986714,
      "perigee_km": 473.81101215425406,
      "latitude_deg": 6.872804314228113e-05,
      "longitude_deg": 153.252710409341,
      "height_km": 475.4090035584461,
      "semi_major_axis_km": 6853.38818314706,
      "eccentricity": 0.00021014,
      "inclination_deg": 53.1591,
      "raan_deg": 117.8521,
      "arg_perigee_deg": 59.1084,
      "mean_anomaly_deg": 301.0124,
      "mean_motion_rev_day": 15.30187905
    },
    {
      "epoch": "2026-04-04T08:22:23.528352Z",
      "apogee_km": 475.5353584717568,
      "perigee_km": 474.41583399803494,
      "latitude_deg": 3.826496602319461e-06,
      "longitude_deg": 155.03784664162566,
      "height_km": 475.58665665603644,
      "semi_major_axis_km": 6853.112596234895,
      "eccentricity": 8.168e-05,
      "inclination_deg": 53.1566,
      "raan_deg": 113.306,
      "arg_perigee_deg": 59.1021,
      "mean_anomaly_deg": 301.006,
      "mean_motion_rev_day": 15.30280207
    },
    {
      "epoch": "2026-04-05T09:27:16.323552Z",
      "apogee_km": 476.0631473837893,
      "perigee_km": 474.60253589113836,
      "latitude_deg": 5.800249832697074e-05,
      "longitude_deg": 132.9318519829789,
      "height_km": 475.99717076083056,
      "semi_major_axis_km": 6853.469841637463,
      "eccentricity": 0.00010656,
      "inclination_deg": 53.1558,
      "raan_deg": 108.45,
      "arg_perigee_deg": 71.3429,
      "mean_anomaly_deg": 288.7688,
      "mean_motion_rev_day": 15.30160557
    },
    {
      "epoch": "2026-04-05T17:17:32.614368Z",
      "apogee_km": 476.00076616406204,
      "perigee_km": 474.4971332866917,
      "latitude_deg": 1.6480844916987657e-05,
      "longitude_deg": 13.525452644593887,
      "height_km": 475.90804140437433,
      "semi_major_axis_km": 6853.385949725376,
      "eccentricity": 0.0001097,
      "inclination_deg": 53.1561,
      "raan_deg": 106.9334,
      "arg_perigee_deg": 71.4744,
      "mean_anomaly_deg": 288.6376,
      "mean_motion_rev_day": 15.30188653
    },
    {
      "epoch": "2026-04-06T07:24:01.237824Z",
      "apogee_km": 476.050542988969,
      "perigee_km": 474.27978677560714,
      "latitude_deg": 1.754271690727457e-05,
      "longitude_deg": 158.59849481144957,
      "height_km": 475.8883936304867,
      "semi_major_axis_km": 6853.302164882288,
      "eccentricity": 0.00012919,
      "inclination_deg": 53.1574,
      "raan_deg": 104.2051,
      "arg_perigee_deg": 78.6279,
      "mean_anomaly_deg": 281.4867,
      "mean_motion_rev_day": 15.30216714
    },
    {
      "epoch": "2026-04-07T03:46:41.536416Z",
      "apogee_km": 475.9187721519593,
      "perigee_km": 474.25864675610137,
      "latitude_deg": -6.2305140022052315e-06,
      "longitude_deg": -151.85372488242677,
      "height_km": 475.78026123210526,
      "semi_major_axis_km": 6853.22570945403,
      "eccentricity": 0.00012112,
      "inclination_deg": 53.1565,
      "raan_deg": 100.2577,
      "arg_perigee_deg": 75.6091,
      "mean_anomaly_deg": 284.5044,
      "mean_motion_rev_day": 15.30242321
    },
    {
      "epoch": "2026-04-08T09:33:41.887008Z",
      "apogee_km": 476.12581961114756,
      "perigee_km": 474.3228373128559,
      "latitude_deg": 1.5753430361340201e-06,
      "longitude_deg": 114.41135439661198,
      "height_km": 476.0527763589951,
      "semi_major_axis_km": 6853.361328462001,
      "eccentricity": 0.00013154,
      "inclination_deg": 53.1596,
      "raan_deg": 94.4974,
      "arg_perigee_deg": 85.5767,
      "mean_anomaly_deg": 274.5384,
      "mean_motion_rev_day": 15.30196899
    },
    {
      "epoch": "2026-04-09T04:22:20.265600Z",
      "apogee_km": 476.14419722163893,
      "perigee_km": 474.2348604507051,
      "latitude_deg": 3.775322468514993e-06,
      "longitude_deg": -172.1653835371505,
      "height_km": 476.0220288706506,
      "semi_major_axis_km": 6853.326528836172,
      "eccentricity": 0.0001393,
      "inclination_deg": 53.1596,
      "raan_deg": 90.8531,
      "arg_perigee_deg": 86.0736,
      "mean_anomaly_deg": 274.0424,
      "mean_motion_rev_day": 15.30208554
    },
    {
      "epoch": "2026-04-10T08:35:17.819232Z",
      "apogee_km": 476.15863716379226,
      "perigee_km": 474.27807645388475,
      "latitude_deg": 7.189356356036274e-06,
      "longitude_deg": 117.9776195586255,
      "height_km": 476.1366364016996,
      "semi_major_axis_km": 6853.355356808838,
      "eccentricity": 0.0001372,
      "inclination_deg": 53.1602,
      "raan_deg": 85.3947,
      "arg_perigee_deg": 91.2386,
      "mean_anomaly_deg": 268.8772,
      "mean_motion_rev_day": 15.30198899
    },
    {
      "epoch": "2026-04-11T15:56:21.365088Z",
      "apogee_km": 475.44780441104103,
      "perigee_km": 474.85705086237795,
      "latitude_deg": -7.1713577327568655e-06,
      "longitude_deg": 0.35569269236835005,
      "height_km": 476.18214349241794,
      "semi_major_axis_km": 6853.289427636709,
      "eccentricity": 4.31e-05,
      "inclination_deg": 53.1608,
      "raan_deg": 79.3251,
      "arg_perigee_deg": 116.1957,
      "mean_anomaly_deg": 243.9088,
      "mean_motion_rev_day": 15.3022098
    },
    {
      "epoch": "2026-04-13T07:07:41.756448Z",
      "apogee_km": 476.1789077575568,
      "perigee_km": 474.23557346468806,
      "latitude_deg": 1.4166572920259494e-05,
      "longitude_deg": 123.32800878894659,
      "height_km": 475.909504730296,
      "semi_major_axis_km": 6853.344240611122,
      "eccentricity": 0.00014178,
      "inclination_deg": 53.1615,
      "raan_deg": 71.7418,
      "arg_perigee_deg": 78.3741,
      "mean_anomaly_deg": 281.7419,
      "mean_motion_rev_day": 15.30202622
    },
    {
      "epoch": "2026-04-14T06:38:29.578272Z",
      "apogee_km": 475.9958380055623,
      "perigee_km": 474.4250507713077,
      "latitude_deg": -3.030981542931768e-06,
      "longitude_deg": 125.11358295433675,
      "height_km": 476.0999283985682,
      "semi_major_axis_km": 6853.347444388434,
      "eccentricity": 0.0001146,
      "inclination_deg": 53.1604,
      "raan_deg": 67.1923,
      "arg_perigee_deg": 89.3577,
      "mean_anomaly_deg": 270.7555,
      "mean_motion_rev_day": 15.30201549
    }
  ]
}